QIANFAN-57              
1 62787U 25016C   25201.58384957  .00000120  00000+0  16719-3 0  9992
2 62787  88.9866 118.1542 0017234  51.6395 308.6302 13.50958713 27604
QIANFAN-58              
1 62788U 25016D   25201.55508342  .00000114  00000+0  15835-3 0  9997
2 62788  88.9836 118.0340 0015990  47.3183 312.9312 13.50952171 27646
QIANFAN-59              
1 62789U 25016E   25201.56752251  .00000113  00000+0  15606-3 0  9994
2 62789  88.9859 118.0688 0016944  49.9240 310.3394 13.50956538 27642
QIANFAN-60              
1 62790U 25016F   25201.55915582  .00000113  00000+0  15600-3 0  9997
2 62790  88.9840 118.0768 0017379  47.8239 312.4385 13.50964871 27621
QIANFAN-61              
1 62791U 25016G   25201.57162952  .00000117  00000+0  16232-3 0  9991
2 62791  88.9908 118.1344 0016791  46.8215 313.4336 13.50954475 27646
QIANFAN-62              
1 62792U 25016H   25201.57555868  .00000054  00000+0  64401-4 0  9996
2 62792  88.9855 118.0810 0018197  46.7781 313.4886 13.50953258 27631
QIANFAN-63              
1 62793U 25016J   25201.58790873  .00000112  00000+0  15507-3 0  9992
2 62793  88.9861 118.0187 0018067  50.7928 309.4824 13.50959467 27679
QIANFAN-64              
1 62794U 25016K   25201.57968443  .00000119  00000+0  16620-3 0  9996
2 62794  88.9848 118.0191 0015805  45.7971 314.4475 13.50959165 27661
